CSS (TIANHE)            
1 48274U 21035A   23309.16420675  .00051267  00000+0  59375-3 0  9996
2 48274  41.4728  17.6109 0003419  46.8679 313.2446 15.60973157143874
